STARLINK-1434           
1 45712U 20035BH  26068.24137979  .00054112  00000+0  20295-2 0  9995
2 45712  53.0547  22.1128 0005343  88.0400 272.1210 15.26724568319325
STARLINK-32734          
1 62476U 24254Q   26068.24736274  .00038972  00000+0  14177-2 0  9999
2 62476  43.0040  19.0143 0001594 252.3822 107.6856 15.27593191 67581
